NUSAT-1 (FRESCO)        
1 41557U 16033B   21333.48609126  .00003437  00000+0  11869-3 0  9997
2 41557  97.3929  66.6011 0012735  16.6800 112.0261 15.30564207306760
BEESAT-4                
1 41619U 16040W   21332.71820725  .00004550  00000+0  17574-3 0  9995
2 41619  97.2492  24.1162 0012000 108.0036 252.2512 15.26686160290060
CAS-2T & KS-1Q          
1 41847U 16066G   21332.45202926  .00000226  00000+0  43103-4 0  9998
2 41847  98.5810  32.0909 0366027  90.7350 273.5784 14.38291685265453
NAYIF-1 (EO-88)         
1 42017U 17008BX  21332.91973026  .00004851  00000+0  17219-3 0  9998
2 42017  97.2984  37.5271 0004394 233.9733 126.1101 15.29504435266385
ZHUHAI-1 02 (CAS-4B)    
1 42759U 17034B   21333.56965074  .00000935  00000+0  68853-4 0  9996
2 42759  43.0191 353.1215 0006688 116.7852  25.7470 15.10572109246115
ZHUHAI-1 01 (CAS-4A)    
1 42761U 17034D   21333.55007252  .00000937  00000+0  68859-4 0  9991
2 42761  43.0194 352.1641 0007039 120.1426  16.9553 15.10659477246118
MAX VALIER SAT          
1 42778U 17036P   21332.91825382  .00002444  00000+0  10258-3 0  9996
2 42778  97.2355  16.0154 0010382 322.5043  37.5470 15.24353229246331
RADFXSAT (FOX-1B)       
1 43017U 17073E   21332.99148546  .00000977  00000+0  79105-4 0  9998
2 43017  97.6923 230.3438 0254708 123.1252 239.4685 14.79972282217455
FOX-1D (AO-92)          
1 43137U 18004AC  21333.02637136  .00003011  00000+0  11937-3 0  9999
2 43137  97.3926  45.3161 0008337   2.0511 358.0760 15.26136972215746
DIWATA-2B               
1 43678U 18084H   21333.45751943  .00000575  00000+0  62716-4 0  9991
2 43678  97.9447  99.8092 0008871 220.1076 139.9496 14.91842709168033
ES'HAIL 2               
1 43700U 18090A   21332.78576788  .00000162  00000+0  00000+0 0  9996
2 43700   0.0252  77.4884 0002440 195.6418 103.4814  1.00274085 11018
FOX-1CLIFF (AO-95)      
1 43770U 18099N   21332.91983323  .00000741  00000+0  71875-4 0  9990
2 43770  97.6480  39.3372 0013568 223.3423 136.6732 14.95560340163034
ITASAT 1                
1 43786U 18099AE  21333.14272853  .00001144  00000+0  10737-3 0  9999
2 43786  97.6506  40.3468 0014231 214.5249 145.5049 14.95825818163106
JY1SAT (JO-97)          
1 43803U 18099AX  21333.14400418  .00001359  00000+0  12569-3 0  9992
2 43803  97.6468  40.0860 0014154 213.9669 146.0648 14.96124181163117
UWE-4                   
1 43880U 18111E   21333.15023758  .00001315  00000+0  11878-3 0  9995
2 43880  97.6772 237.9803 0010493 272.6015  87.4005 14.97143767157720
NEXUS (FO-99)           
1 43937U 19003F   21332.82433030  .00003656  00000+0  14045-3 0  9999
2 43937  97.1582   9.3387 0023551 145.5115 214.7658 15.26787197159335
PSAT2 (NO-104)          
1 44354U 19036R   21333.54397628  .00025458  00000+0  30895-3 0  9996
2 44354  28.5278 101.3468 0297743 274.2054  82.4572 15.20779894134056
BRICSAT2 (NO-103)       
1 44355U 19036S   21333.29070579  .00070165 -49762-5  57253-3 0  9999
2 44355  28.5251  24.3496 0203680  39.8587 321.6782 15.46441147134805
JAISAT-1                
1 44419U 19038F   21333.39769710  .00003232  00000+0  17819-3 0  9995
2 44419  97.6109 297.7562 0022435 102.0906 258.2842 15.14498882132757
DUCHIFAT-3              
1 44854U 19089C   21333.05355887  .00000910  00000+0  78476-4 0  9990
2 44854  36.9645 207.0268 0007987  20.8516 339.2551 14.99820626107821
CAS-6 (TO-108)          
1 44881U 19093C   21333.20029569  .00000152  00000+0  26122-4 0  9996
2 44881  97.9126  50.1317 0016365 115.2357 245.0563 14.81515327105124
RS-44 & BREEZE-KM R/B   
1 44909U 19096E   21333.35782123  .00000016  00000+0  13682-4 0  9994
2 44909  82.5224   3.2410 0218436  67.7171 294.6933 12.79711272 89961
ORBITAL FACTORY 2 (OF-2)
1 45113U 19071C   21333.01626094  .00006423  00000+0  18085-3 0  9991
2 45113  51.6418 318.6511 0011054 163.1744 196.9608 15.37704736102479
HUSKYSAT-1 (HO-107)     
1 45119U 19071J   21332.96650693  .00007141  00000+0  20071-3 0  9998
2 45119  51.6415 318.3079 0010675 159.5445 200.5968 15.37573996102465
BY70-2                  
1 45857U 20042B   21333.57449813  .00001937  00000+0  27785-3 0  9991
2 45857  97.9727  47.5674 0011411  49.1110 311.1095 14.77620106 75926
SALSAT                  
1 46495U 20068K   21332.90791567  .00001606  00000+0  12148-3 0  9990
2 46495  97.7052 269.5522 0015872 234.4344 125.5403 15.03687503 64040
BY70-3                  
1 46839U 20079N   21333.57981488  .00005232  00000+0  15453-3 0  9992
2 46839  97.2249  44.1720 0006465 348.5888 149.0688 15.35364155 59523
RADFXSAT-2 (AO-109)     
1 47311U 21002C   21332.92222262  .00002767  00000+0  12849-3 0  9997
2 47311  60.6873  35.1935 0035974 130.5100 229.9130 15.22469449 47904
UVSQ-SAT                
1 47438U 21006AB  21332.88756293  .00001780  00000+0  10246-3 0  9995
2 47438  97.4676  31.0297 0011152 247.3033 112.7020 15.13674646 46928
DIY-1 (ARDUIQUBE)       
1 47963U 21022AH  21332.48539176  .00005323  00000+0  34423-3 0  9991
2 47963  97.5446 231.8854 0020546 101.7020 258.6515 15.08442384 36612
